COSMOS 2419 (714)       
1 28915U 05050A   17016.43495341 -.00000041  00000-0  00000+0 0  9998
2 28915  65.4217  70.9687 0015031 348.2797 310.3645  2.13108991 86098
COSMOS 2425 (716)       
1 29670U 06062A   17015.51486579 -.00000042  00000-0  10000-3 0  9998
2 29670  65.5365 310.0089 0022724 342.1547  25.3964  2.13104961 78281
COSMOS 2426 (717)       
1 29671U 06062B   17016.16755640 -.00000044  00000-0  10000-3 0  9991
2 29671  65.5532 310.0733 0015816 170.2641 197.4176  2.13103131 78300
COSMOS 2424 (715)       
1 29672U 06062C   17015.76568656 -.00000043  00000-0  10000-3 0  9995
2 29672  65.5377 310.0116 0015207 168.8987  66.2272  2.13102083 78285
COSMOS 2433 (720)       
1 32275U 07052A   17015.67341808 -.00000035  00000-0  10000-3 0  9997
2 32275  65.4365  70.7703 0003862 258.2270  63.1463  2.13105006 71794
COSMOS 2432 (719)       
1 32276U 07052B   17016.15784448 -.00000039  00000-0  10000-3 0  9997
2 32276  65.4495  70.8224 0011657 329.3871 316.8709  2.13104104 71807
COSMOS 2434 (721)       
1 32393U 07065A   17015.61954206 -.00000042  00000-0  00000+0 0  9991
2 32393  65.1532 309.2279 0002069  98.9032  71.6184  2.13102831 70504
COSMOS 2436 (723)       
1 32395U 07065C   17016.16783226 -.00000044  00000-0  10000-3 0  9993
2 32395  65.1628 309.2524 0016062 353.9622 285.1135  2.13104250 70440
COSMOS 2443 (725)       
1 33379U 08046B   17015.81919104 -.00000037  00000-0  00000+0 0  9990
2 33379  65.3656  70.1604 0016361 187.8164 147.7274  2.13101971 64667
COSMOS 2456 (730)       
1 36111U 09070A   17016.29052041  .00000058  00000-0  00000+0 0  9998
2 36111  64.1804 188.7706 0003367 351.1218 144.6810  2.13102908 55183
COSMOS 2457 (733)       
1 36112U 09070B   17016.22123598  .00000057  00000-0  00000+0 0  9997
2 36112  64.1620 188.6954 0007269 147.1254  64.7983  2.13101610 55184
COSMOS 2458 (734)       
1 36113U 09070C   17016.15802422  .00000056  00000-0  10000-3 0  9994
2 36113  64.1669 188.7048 0003155  60.5246 150.6258  2.13101969 55189
COSMOS 2459 (731)       
1 36400U 10007A   17016.47335932 -.00000042  00000-0  10000-3 0  9993
2 36400  65.3460  69.8661 0027445 349.8380  88.6275  2.13102263 53545
COSMOS 2461 (735)       
1 36401U 10007B   17016.16324006 -.00000039  00000-0  10000-3 0  9996
2 36401  65.3381  69.8570 0005028  69.5043  41.6412  2.13102180 53531
COSMOS 2460 (732)       
1 36402U 10007C   17016.12458586 -.00000039  00000-0  10000-3 0  9994
2 36402  65.3292  69.8336 0001344 255.2418 227.7962  2.13101898 53532
COSMOS 2465 (737)       
1 37138U 10041B   17015.69480190 -.00000043  00000-0  00000+0 0  9996
2 37138  64.7520 309.2908 0034277 174.2372  97.5591  2.13104175 49595
COSMOS 2464 (736)       
1 37139U 10041C   17016.11827569 -.00000045  00000-0  00000+0 0  9992
2 37139  64.7584 309.2730 0023669   7.7452  53.1136  2.13102674 49619
COSMOS 2471 (701K)      
1 37372U 11009A   17016.06698705 -.00000039  00000-0  00000+0 0  9991
2 37372  65.3258  69.7832 0008931 238.8237 333.3313  2.13102653 45801
COSMOS 2474 (742)       
1 37829U 11055A   17015.87177399  .00000054  00000-0  00000+0 0  9994
2 37829  64.5048 189.2866 0005814 243.3730 151.6362  2.13101934 41179
COSMOS 2476 (744)       
1 37867U 11064A   17016.49245142  .00000060  00000-0  00000+0 0  9994
2 37867  64.4832 189.3420 0014910 241.3361 315.7280  2.13101999 40535
COSMOS 2477 (745)       
1 37868U 11064B   17016.17167098  .00000057  00000-0  00000+0 0  9999
2 37868  64.4923 189.3946 0012885 242.3528 247.8436  2.13101856 40489
COSMOS 2475 (743)       
1 37869U 11064C   17016.23079554  .00000058  00000-0  00000+0 0  9997
2 37869  64.4988 189.3831 0017759 274.2038 217.6704  2.13102047 40496
COSMOS 2485 (747)       
1 39155U 13019A   17016.19324097  .00000058  00000-0  00000+0 0  9999
2 39155  64.6545 189.3478 0015490 235.1889 137.4182  2.13102033 29002
COSMOS 2492 (754)       
1 39620U 14012A   17015.68723895 -.00000036  00000-0  10000-3 0  9994
2 39620  65.2182  69.8049 0015167 326.7148  51.4894  2.13103520 21947
COSMOS 2500 (755)       
1 40001U 14032A   17016.04488498 -.00000039  00000-0  00000+0 0  9997
2 40001  65.1586  69.8014 0007026 214.9596 300.9596  2.13102841 20160
COSMOS 2501 (702K)      
1 40315U 14075A   17016.17494991 -.00000047  00000-0  00000+0 0  9990
2 40315  64.4855 310.6674 0014836 215.1761 208.4831  2.13100535 16574
COSMOS 2514 (751)       
1 41330U 16008A   17016.15944759 -.00000040  00000-0  00000+0 0  9999
2 41330  64.9602  69.9800 0010365 220.0529 203.3542  2.13103447  7334
COSMOS 2516 (753)       
1 41554U 16032A   17015.52975073 -.00000044  00000-0  00000+0 0  9991
2 41554  64.7050 310.4110 0012125 232.3942 321.3954  2.13101697  4921
